OBJECT_NAME,OBJECT_ID,EPOCH,MEAN_MOTION,ECCENTRICITY,INCLINATION,RA_OF_ASC_NODE,ARG_OF_PERICENTER,MEAN_ANOMALY,EPHEMERIS_TYPE,CLASSIFICATION_TYPE,NORAD_CAT_ID,ELEMENT_SET_NO,REV_AT_EPOCH,BSTAR,MEAN_MOTION_DOT,MEAN_MOTION_DDOT
OPS 6582 (TRANSIT 5B-5),1964-083D,2026-05-19T15:37:03.428832,13.57009912,.0041554,90.0786,202.8092,4.3508,149.9771,0,U,965,999,3974,.71675E-4,.6E-6,0
LES-1,1965-008C,2026-05-19T15:09:49.866624,9.88355205,.0015438,32.1399,112.3484,168.1041,191.9822,0,U,1002,999,21336,-.32797E-2,-.16E-6,0
SOLRAD 7B,1965-016D,2026-05-19T20:38:03.358176,13.94972115,.0020334,70.0789,296.4872,165.0442,195.1269,0,U,1291,999,11275,.40443E-4,.2E-7,0
SECOR 4 (EGRS 4),1965-027B,2026-05-19T14:37:10.470144,12.92667323,.0029387,90.2523,14.9303,275.5074,112.2144,0,U,1315,999,88323,-.20319E-3,-.48E-6,0
TIROS 10,1965-051A,2026-05-19T20:44:19.384800,14.41618014,.0055699,98.5002,259.3245,162.9083,197.3999,0,U,1430,999,19183,.44812E-4,.104E-5,0
ALOUETTE 2,1965-098A,2026-05-19T17:43:05.613024,12.28322518,.1330093,79.7997,300.8704,290.2527,56.0622,0,U,1804,999,67578,.53308E-4,.156E-5,0
OV3-3,1966-070A,2026-05-19T19:00:53.307360,13.44624952,.1014058,81.3274,356.0563,231.3197,119.2946,0,U,2389,999,59515,.28079E-3,.6195E-4,0
SECOR 7 (EGRS 7),1966-077B,2026-05-19T08:33:48.039264,8.59615373,.0011766,90.3329,277.1015,86.5758,273.6439,0,U,2411,999,87490,-.36302E-2,-.6E-7,0
ERS 15,1966-077C,2026-05-16T18:38:24.651744,8.59079306,.00074223,90.3326,276.8641,98.4005,261.7688,0,U,2412,999,38776,0,.2E-7,0
ISIS 1,1969-009A,2026-05-19T18:46:19.109568,11.30428868,.1706075,88.4417,147.5225,305.6469,39.7136,0,U,3669,999,35656,.3312E-4,.44E-6,0
SECOR 13 (EGRS 13),1969-037B,2026-05-19T10:27:19.936224,13.42975936,.0039028,99.6527,12.1656,323.0232,211.2612,0,U,3891,999,79789,.35624E-4,-.22E-6,0
ATS 5,1969-069A,2026-05-19T17:02:30.842016,0.99490669,.0005343,0.2338,168.7663,112.8240,72.5857,0,U,4068,999,4604,0,.105E-5,0
OPS 7613 (P/L 4),1969-082E,2026-05-19T19:34:46.136928,13.95991562,.0020138,70.0130,164.4993,174.8485,358.2556,0,U,4237,999,88234,.51677E-4,.18E-6,0
OPS 7613 (P/L 1),1969-082B,2026-05-19T15:23:12.665184,13.99188870,.001708,70.0110,26.3391,104.7149,255.5852,0,U,4256,999,88647,.80869E-4,.64E-6,0
SHINSEI (MS-F2),1971-080A,2026-05-19T04:09:08.839872,12.74250227,.06396477,32.0553,228.6739,207.2703,149.2877,0,U,5485,999,54555,.97280349E-4,.8E-6,0
PROSPERO (BLACK ARROW),1971-093A,2026-05-19T17:50:26.001600,14.01561343,.0500515,82.0371,315.8036,308.7946,46.9506,0,U,5580,999,74454,.11253E-3,.534E-5,0
OPS 7898 (P/L 2),1971-110C,2026-05-19T20:48:48.868128,13.74756223,.0009328,69.9904,61.3636,219.5072,140.5343,0,U,5680,999,34432,.37253E-4,-.15E-6,0
NOAA 2 (ITOS-D),1972-082A,2026-05-19T19:24:20.144736,12.53214002,.0003856,102.0089,158.0681,219.1985,313.9122,0,U,6235,999,45139,-.37328E-4,-.52E-6,0
OSCAR 7 (AO-7),1974-089B,2026-05-19T21:31:32.579040,12.53697591,.0012249,101.9911,152.8478,183.3266,248.6664,0,U,7530,999,35697,-.53897E-4,-.55E-6,0
TIROS N,1978-096A,2026-05-19T19:11:28.997088,14.19365958,.0009655,98.4547,162.1371,331.2115,28.8528,0,U,11060,999,67472,.58443E-4,.81E-6,0
PHASE 3B (AO-10),1983-058B,2026-05-19T05:37:22.476288,2.05873012,.6020913,25.8957,224.3751,107.6960,323.5205,0,U,14129,999,29489,0,-.246E-5,0
HILAT,1983-063A,2026-05-19T21:14:47.760000,14.38692197,.0039626,82.0248,187.3370,18.6890,154.5860,0,U,14154,999,24351,.65739E-4,.219E-5,0
UOSAT 2 (UO-11),1984-021B,2026-05-19T15:03:29.864736,14.90707212,.0006031,97.8042,105.5264,281.6133,78.4408,0,U,14781,999,25287,.67993E-4,.611E-5,0
NOAA 9,1984-123A,2026-05-19T20:11:08.625984,14.17059762,.0015676,99.1007,165.8199,71.9373,101.2810,0,U,15427,999,13940,.47899E-4,.5E-6,0
GEOSAT,1985-021A,2026-05-19T15:59:47.791104,14.39951811,.0001294,108.0461,22.0961,264.6612,95.4382,0,U,15595,999,15866,.48513E-4,.17E-6,0
EUTELSAT 1-F4 (ECS 4),1987-078B,2026-05-19T13:27:11.431008,0.98688885,.0011569,13.8491,342.3278,40.8100,170.3678,0,U,18351,999,12647,0,-.159E-5,0
PACSAT (AO-16),1990-005D,2026-05-19T13:58:45.966144,14.33926654,.0009778,98.8542,174.5882,320.5200,192.7597,0,U,20439,999,89783,.40329E-4,.66E-6,0
LUSAT (LO-19),1990-005G,2026-05-19T12:09:59.855328,14.34113364,.0010496,98.8866,160.5203,292.5933,67.4140,0,U,20442,999,89828,.38096E-4,.6E-6,0
IRS-1B,1991-061A,2026-05-19T11:59:42.693216,13.97871639,.0025126,99.4122,146.7316,81.4963,35.9269,0,U,21688,999,66448,-.13164E-3,-.234E-5,0
COSMOS 2197,1992-042A,2026-05-19T13:40:41.018016,12.64251567,.0012003,82.5945,247.2165,344.2663,26.9557,0,U,22034,999,56167,.12353E-3,.33E-6,0
PEGASUS R/B,1993-009C,2026-05-19T17:11:31.394112,14.57926680,.0043976,24.9778,269.1793,159.5721,200.6558,0,U,22491,999,76547,.94865E-4,.654E-5,0
EYESAT A (AO-27),1993-061C,2026-05-19T09:37:19.086240,14.30933560,.0008442,98.6890,206.8229,177.1084,183.0148,0,U,22825,999,70288,.38626E-4,.57E-6,0
ITAMSAT (IO-26),1993-061D,2026-05-19T11:00:40.834080,14.31359582,.0009291,98.6838,206.7954,161.1632,198.9896,0,U,22826,999,70320,.36677E-4,.53E-6,0
RADIO ROSTO (RS15),1994-085A,2026-05-19T19:46:47.809344,11.27583621,.0155156,64.8186,349.0889,9.0821,351.2853,0,U,23439,999,29270,-.75812E-5,-.43E-6,0
JAS-2 (FO-29),1996-046B,2026-05-19T20:17:53.085984,13.53272796,.0350056,98.5268,352.5960,169.8315,191.0151,0,U,24278,999,46933,.39402E-4,.5E-7,0
FORTE,1997-047A,2026-05-19T20:45:24.024960,14.27932161,.0023934,69.9531,77.9919,311.9579,47.9503,0,U,24920,999,49464,.6062E-4,.93E-6,0
NOAA 15,1998-030A,2026-05-19T20:40:16.205088,14.27136996,.0011435,98.5081,161.2576,73.0653,287.1780,0,U,25338,999,45725,.5099E-4,.82E-6,0
TECHSAT 1B (GO-32),1998-043D,2026-05-19T09:43:28.220736,14.24422141,.0000651,99.0065,131.4395,357.9787,2.1388,0,U,25397,999,44723,.27359E-4,.17E-6,0
ISS (ZARYA),1998-067A,2026-05-19T19:27:10.116864,15.49275597,.0007549,51.6327,80.5761,76.5627,283.6202,0,U,25544,999,56735,.1022E-3,.5239E-4,0
ORSTED,1999-008B,2026-05-19T12:12:55.185120,14.51781750,.0130106,96.4837,53.5358,278.7530,79.8954,0,U,25635,999,43780,.73318E-4,.294E-5,0
LANDSAT 7,1999-020A,2026-05-19T21:04:23.093184,14.63889717,.0001532,97.8584,144.8120,102.8499,320.2150,0,U,25682,999,44170,.53507E-4,.235E-5,0
ORBCOMM FM36,1999-065E,2026-05-19T17:12:27.847008,14.39140471,.0004149,45.0394,294.7376,188.0527,172.0256,0,U,25984,999,38288,.20494E-3,.497E-5,0
DMSP 5D-3 F15 (USA 147),1999-067A,2026-05-19T18:49:32.024352,14.17552002,.0011141,98.9981,177.9817,84.5467,5.4894,0,U,25991,999,36662,.66819E-4,.9E-6,0
OPAL (OO-38),2000-004C,2026-05-19T18:55:10.403040,14.37952710,.0036443,100.1907,71.3752,114.7801,245.7179,0,U,26063,999,37920,.42738E-4,.71E-6,0
IMAGE,2000-017A,2026-05-16T20:25:18.819264,1.68665369,.74554789,94.2039,314.9580,291.3690,8.2558,0,U,26113,999,16097,.11882681E-1,.32E-6,0
CLUSTER II-FM7 (SAMBA),2000-041A,2026-05-19T03:11:14.910144,0.44883482,.90185594,149.8437,45.8867,262.6588,0.3747,0,U,26410,999,2018,0,.6663E-4,0
CLUSTER II-FM8 (TANGO),2000-045B,2026-05-19T03:31:59.188512,0.44397908,.90257633,150.1023,46.8868,263.5226,0.1578,0,U,26464,999,2017,0,.6855E-4,0
MEGSAT-1,2000-057B,2026-05-19T09:06:45.749088,15.05306930,.0041312,64.5470,161.4132,287.1322,72.5272,0,U,26546,999,39332,.11135E-3,.1443E-4,0
PHASE 3D (AO-40),2000-072B,2026-05-18T23:45:38.720736,1.25588326,.7931677,9.4697,355.4946,169.3222,233.4521,0,U,26609,999,11714,0,-.148E-5,0
ODIN,2001-007A,2026-05-19T08:54:25.111008,15.67211947,.0003621,97.3908,178.6515,181.7117,178.4132,0,U,26702,999,38487,.77214E-3,.83279E-3,0
OMNI-M1,2001-026A,2026-05-19T10:28:09.458112,3.92401339,.0015186,44.8407,251.8908,48.7845,311.3788,0,U,26857,999,20444,0,-.14E-6,0
PCSAT (NO-44),2001-043C,2026-05-19T20:55:25.180608,14.31943954,.0006217,67.0507,317.5081,263.5445,96.4949,0,U,26931,999,28639,.51158E-4,.54E-6,0
PROBA-1,2001-049B,2026-05-19T20:36:50.898816,15.07372752,.0053888,97.9601,147.4045,217.2719,142.4763,0,U,26958,999,33935,.28372E-4,.37E-5,0
SPOT 5,2002-021A,2026-05-19T13:24:05.067072,14.54728591,.0129707,97.9869,179.6868,6.1603,354.1152,0,U,27421,999,25868,.639E-4,.256E-5,0
FENGYUN 1D,2002-024B,2026-05-19T20:08:21.747840,14.10220307,.0014694,98.9539,190.2959,326.0418,33.9811,0,U,27431,999,23548,.43334E-4,.32E-6,0
SAUDISAT 1C (SO-50),2002-058C,2026-05-19T15:08:19.746240,14.82980190,.0075613,64.5520,217.3330,267.7041,91.5406,0,U,27607,999,26022,.82624E-4,.548E-5,0
CORIOLIS,2003-001A,2026-05-19T20:53:02.607648,14.19936309,.0012894,98.7133,147.1871,296.8164,63.1693,0,U,27640,999,21020,.42126E-4,.46E-6,0
CUTE-1 (CO-55),2003-031E,2026-05-19T17:26:56.478912,14.24316262,.0008282,98.6744,148.6439,267.9706,92.0524,0,U,27844,999,18762,.93563E-4,.172E-5,0
CUBESAT XI-IV (CO-57),2003-031J,2026-05-19T11:46:10.668000,14.23603827,.0008254,98.6775,148.1459,290.1420,69.8871,0,U,27848,999,18729,.77858E-4,.134E-5,0
MOZHAETS 4 (RS22),2003-042A,2026-05-19T20:06:57.345408,14.73413052,.0011378,98.3464,323.3976,5.6952,119.1887,0,U,27939,999,21137,.17076E-3,.1054E-4,0
IRS-P6 (RESOURCESAT-1),2003-046A,2026-05-19T21:26:56.457600,14.36150443,.0065443,98.1921,177.7901,67.6734,104.8404,0,U,28051,999,17646,.31423E-4,.53E-6,0
SAUDISAT 2,2004-025F,2026-05-19T17:29:32.881920,14.56664286,.0025266,98.5509,138.9765,26.8984,333.3517,0,U,28371,999,16160,.42581E-4,.141E-5,0
COSMOS 2407,2004-028A,2026-05-19T15:56:01.424832,13.76332095,.0038643,82.9590,95.9581,334.2469,199.6884,0,U,28380,999,9595,.35037E-4,.49E-6,0
COSMOS 2414,2005-002A,2026-05-19T18:32:26.148768,13.87923467,.0041347,82.9504,65.1376,51.6617,308.8250,0,U,28521,999,7987,.48415E-4,.74E-6,0
INMARSAT 4-F1,2005-009A,2026-05-19T13:50:38.779008,1.00270854,.0002547,5.1321,42.7058,11.3392,208.9801,0,U,28628,999,7738,0,.29E-6,0
HAMSAT (VO-52),2005-017B,2026-05-19T11:42:24.014880,15.09436634,.0020681,97.9918,161.3459,131.4563,228.8445,0,U,28650,999,14243,.19309E-3,.3033E-4,0
NOAA 18,2005-018A,2026-05-19T19:29:32.455680,14.13723628,.001345,98.8112,219.9000,228.5967,131.4050,0,U,28654,999,8230,.35816E-4,.24E-6,0
